ONEWEB-0140             
1 47286U 20100AE  22230.55089373  .00000382  00000+0  10254-2 0  9995
2 47286  87.8840 268.5410 0002020  86.8133 273.3226 13.12443829 81228
ONEWEB-0141             
1 47287U 20100AF  22230.34442372  .00000165  00000+0  42307-3 0  9999
2 47287  87.8869 268.5788 0001558  95.0411 265.0895 13.12439147 81198
ONEWEB-0142             
1 47288U 20100AG  22230.48841294  .00000365  00000+0  97888-3 0  9997
2 47288  87.8829 268.6042 0001730  91.9855 268.1471 13.12442751 81209
ONEWEB-0143             
1 47289U 20100AH  22230.36662140 -.00000428  00000+0 -12261-2 0  9999
2 47289  87.8862 268.5880 0002098  95.5826 264.5542 13.12441081 81161
ONEWEB-0144             
1 47290U 20100AJ  22230.49158339  .00000273  00000+0  72346-3 0  9992
2 47290  87.8855 268.5773 0002087  83.9040 276.2326 13.12439885 81106
ONEWEB-0145             
1 47291U 20100AK  22230.53818341  .00000040  00000+0  76186-4 0  9993
2 47291  87.8838 268.5149 0001974  92.1576 267.9778 13.12444248 81304
ONEWEB-0146             
1 47292U 20100AL  22230.38146300 -.00000096  00000+0 -30142-3 0  9990
2 47292  87.8860 268.6061 0002450 104.4827 255.6573 13.12443736 81195
ONEWEB-0147             
1 47293U 20100AM  22231.18830357 -.00000027  00000+0 -10927-3 0  9995
2 47293  87.8842 268.4165 0002166  79.9226 280.2147 13.12438620 81199
ONEWEB-0115             
1 48042U 21025A   22230.93619127  .00000283  00000+0  73894-3 0  9991
2 48042  87.9032 237.9450 0002282  87.1604 272.9786 13.13471248 70045
ONEWEB-0152             
1 48043U 21025B   22230.71886229  .00000125  00000+0  30855-3 0  9992
2 48043  87.8971 237.9974 0002215  83.3040 276.8341 13.13470546 69976
ONEWEB-0153             
1 48044U 21025C   22230.46791445  .00000294  00000+0  76930-3 0  9991
2 48044  87.8902 238.0729 0001970  87.8434 272.2920 13.13470876 69939
ONEWEB-0154             
1 48045U 21025D   22230.46568328  .00000729  00000+0  19621-2 0  9990
2 48045  87.8998 238.1338 0001982  91.1260 269.0096 13.13472353 69895
ONEWEB-0116             
1 48046U 21025E   22230.43207086 -.00000240  00000+0 -69300-3 0  9999
2 48046  87.8994 238.1226 0002249  96.1048 264.0338 13.13471234 70033
ONEWEB-0150             
1 48047U 21025F   22230.93843154  .00000283  00000+0  74075-3 0  9997
2 48047  87.9054 237.9143 0001707  87.9000 272.2325 13.13468032 69993
ONEWEB-0107             
1 48048U 21025G   22230.71214007  .00000323  00000+0  85010-3 0  9999
2 48048  87.9042 237.9751 0001652  77.0937 283.0377 13.13469359 69949
ONEWEB-0101             
1 48049U 21025H   22230.44776207 -.00000118  00000+0 -35697-3 0  9995
2 48049  87.9037 238.0471 0001991  80.1639 279.9715 13.13471573 69889
ONEWEB-0113             
1 48050U 21025J   22230.42310070 -.00000141  00000+0 -42240-3 0  9995
2 48050  87.8992 238.1154 0002141  91.3827 268.7548 13.13469034 69968
