[{"OBJECT_NAME":"ONEWEB-0140","OBJECT_ID":"2020-100AE","EPOCH":"2022-08-18T13:13:17.218272","MEAN_MOTION":13.12443829,"ECCENTRICITY":0.000202,"INCLINATION":87.884,"RA_OF_ASC_NODE":268.541,"ARG_OF_PERICENTER":86.8133,"MEAN_ANOMALY":273.3226,"EPHEMERIS_TYPE":0,"CLASSIFICATION_TYPE":"U","NORAD_CAT_ID":47286,"ELEMENT_SET_NO":999,"REV_AT_EPOCH":8122,"BSTAR":0.0010254,"MEAN_MOTION_DOT":3.82e-6,"MEAN_MOTION_DDOT":0},{"OBJECT_NAME":"ONEWEB-0141","OBJECT_ID":"2020-100AF","EPOCH":"2022-08-18T08:15:58.209408","MEAN_MOTION":13.12439147,"ECCENTRICITY":0.0001558,"INCLINATION":87.8869,"RA_OF_ASC_NODE":268.5788,"ARG_OF_PERICENTER":95.0411,"MEAN_ANOMALY":265.0895,"EPHEMERIS_TYPE":0,"CLASSIFICATION_TYPE":"U","NORAD_CAT_ID":47287,"ELEMENT_SET_NO":999,"REV_AT_EPOCH":8119,"BSTAR":0.00042307,"MEAN_MOTION_DOT":1.65e-6,"MEAN_MOTION_DDOT":0},{"OBJECT_NAME":"ONEWEB-0142","OBJECT_ID":"2020-100AG","EPOCH":"2022-08-18T11:43:18.878016","MEAN_MOTION":13.12442751,"ECCENTRICITY":0.000173,"INCLINATION":87.8829,"RA_OF_ASC_NODE":268.6042,"ARG_OF_PERICENTER":91.9855,"MEAN_ANOMALY":268.1471,"EPHEMERIS_TYPE":0,"CLASSIFICATION_TYPE":"U","NORAD_CAT_ID":47288,"ELEMENT_SET_NO":999,"REV_AT_EPOCH":8120,"BSTAR":0.00097888,"MEAN_MOTION_DOT":3.65e-6,"MEAN_MOTION_DDOT":0},{"OBJECT_NAME":"ONEWEB-0143","OBJECT_ID":"2020-100AH","EPOCH":"2022-08-18T08:47:56.088960","MEAN_MOTION":13.12441081,"ECCENTRICITY":0.0002098,"INCLINATION":87.8862,"RA_OF_ASC_NODE":268.588,"ARG_OF_PERICENTER":95.5826,"MEAN_ANOMALY":264.5542,"EPHEMERIS_TYPE":0,"CLASSIFICATION_TYPE":"U","NORAD_CAT_ID":47289,"ELEMENT_SET_NO":999,"REV_AT_EPOCH":8116,"BSTAR":-0.0012261,"MEAN_MOTION_DOT":-4.28e-6,"MEAN_MOTION_DDOT":0},{"OBJECT_NAME":"ONEWEB-0144","OBJECT_ID":"2020-100AJ","EPOCH":"2022-08-18T11:47:52.804896","MEAN_MOTION":13.12439885,"ECCENTRICITY":0.0002087,"INCLINATION":87.8855,"RA_OF_ASC_NODE":268.5773,"ARG_OF_PERICENTER":83.904,"MEAN_ANOMALY":276.2326,"EPHEMERIS_TYPE":0,"CLASSIFICATION_TYPE":"U","NORAD_CAT_ID":47290,"ELEMENT_SET_NO":999,"REV_AT_EPOCH":8110,"BSTAR":0.00072346,"MEAN_MOTION_DOT":2.73e-6,"MEAN_MOTION_DDOT":0},{"OBJECT_NAME":"ONEWEB-0145","OBJECT_ID":"2020-100AK","EPOCH":"2022-08-18T12:54:59.046624","MEAN_MOTION":13.12444248,"ECCENTRICITY":0.0001974,"INCLINATION":87.8838,"RA_OF_ASC_NODE":268.5149,"ARG_OF_PERICENTER":92.1576,"MEAN_ANOMALY":267.9778,"EPHEMERIS_TYPE":0,"CLASSIFICATION_TYPE":"U","NORAD_CAT_ID":47291,"ELEMENT_SET_NO":999,"REV_AT_EPOCH":8130,"BSTAR":7.6186e-5,"MEAN_MOTION_DOT":4.0e-7,"MEAN_MOTION_DDOT":0},{"OBJECT_NAME":"ONEWEB-0146","OBJECT_ID":"2020-100AL","EPOCH":"2022-08-18T09:09:18.403200","MEAN_MOTION":13.12443736,"ECCENTRICITY":0.000245,"INCLINATION":87.886,"RA_OF_ASC_NODE":268.6061,"ARG_OF_PERICENTER":104.4827,"MEAN_ANOMALY":255.6573,"EPHEMERIS_TYPE":0,"CLASSIFICATION_TYPE":"U","NORAD_CAT_ID":47292,"ELEMENT_SET_NO":999,"REV_AT_EPOCH":8119,"BSTAR":-0.00030142,"MEAN_MOTION_DOT":-9.6e-7,"MEAN_MOTION_DDOT":0},{"OBJECT_NAME":"ONEWEB-0147","OBJECT_ID":"2020-100AM","EPOCH":"2022-08-19T04:31:09.428448","MEAN_MOTION":13.1243862,"ECCENTRICITY":0.0002166,"INCLINATION":87.8842,"RA_OF_ASC_NODE":268.4165,"ARG_OF_PERICENTER":79.9226,"MEAN_ANOMALY":280.2147,"EPHEMERIS_TYPE":0,"CLASSIFICATION_TYPE":"U","NORAD_CAT_ID":47293,"ELEMENT_SET_NO":999,"REV_AT_EPOCH":8119,"BSTAR":-0.00010927,"MEAN_MOTION_DOT":-2.7e-7,"MEAN_MOTION_DDOT":0},{"OBJECT_NAME":"ONEWEB-0115","OBJECT_ID":"2021-025A","EPOCH":"2022-08-18T22:28:06.925728","MEAN_MOTION":13.13471248,"ECCENTRICITY":0.0002282,"INCLINATION":87.9032,"RA_OF_ASC_NODE":237.945,"ARG_OF_PERICENTER":87.1604,"MEAN_ANOMALY":272.9786,"EPHEMERIS_TYPE":0,"CLASSIFICATION_TYPE":"U","NORAD_CAT_ID":48042,"ELEMENT_SET_NO":999,"REV_AT_EPOCH":7004,"BSTAR":0.00073894,"MEAN_MOTION_DOT":2.83e-6,"MEAN_MOTION_DDOT":0},{"OBJECT_NAME":"ONEWEB-0152","OBJECT_ID":"2021-025B","EPOCH":"2022-08-18T17:15:09.701856","MEAN_MOTION":13.13470546,"ECCENTRICITY":0.0002215,"INCLINATION":87.8971,"RA_OF_ASC_NODE":237.9974,"ARG_OF_PERICENTER":83.304,"MEAN_ANOMALY":276.8341,"EPHEMERIS_TYPE":0,"CLASSIFICATION_TYPE":"U","NORAD_CAT_ID":48043,"ELEMENT_SET_NO":999,"REV_AT_EPOCH":6997,"BSTAR":0.00030855,"MEAN_MOTION_DOT":1.25e-6,"MEAN_MOTION_DDOT":0},{"OBJECT_NAME":"ONEWEB-0153","OBJECT_ID":"2021-025C","EPOCH":"2022-08-18T11:13:47.808480","MEAN_MOTION":13.13470876,"ECCENTRICITY":0.000197,"INCLINATION":87.8902,"RA_OF_ASC_NODE":238.0729,"ARG_OF_PERICENTER":87.8434,"MEAN_ANOMALY":272.292,"EPHEMERIS_TYPE":0,"CLASSIFICATION_TYPE":"U","NORAD_CAT_ID":48044,"ELEMENT_SET_NO":999,"REV_AT_EPOCH":6993,"BSTAR":0.0007693,"MEAN_MOTION_DOT":2.94e-6,"MEAN_MOTION_DDOT":0},{"OBJECT_NAME":"ONEWEB-0154","OBJECT_ID":"2021-025D","EPOCH":"2022-08-18T11:10:35.035392","MEAN_MOTION":13.13472353,"ECCENTRICITY":0.0001982,"INCLINATION":87.8998,"RA_OF_ASC_NODE":238.1338,"ARG_OF_PERICENTER":91.126,"MEAN_ANOMALY":269.0096,"EPHEMERIS_TYPE":0,"CLASSIFICATION_TYPE":"U","NORAD_CAT_ID":48045,"ELEMENT_SET_NO":999,"REV_AT_EPOCH":6989,"BSTAR":0.0019621,"MEAN_MOTION_DOT":7.29e-6,"MEAN_MOTION_DDOT":0},{"OBJECT_NAME":"ONEWEB-0116","OBJECT_ID":"2021-025E","EPOCH":"2022-08-18T10:22:10.922304","MEAN_MOTION":13.13471234,"ECCENTRICITY":0.0002249,"INCLINATION":87.8994,"RA_OF_ASC_NODE":238.1226,"ARG_OF_PERICENTER":96.1048,"MEAN_ANOMALY":264.0338,"EPHEMERIS_TYPE":0,"CLASSIFICATION_TYPE":"U","NORAD_CAT_ID":48046,"ELEMENT_SET_NO":999,"REV_AT_EPOCH":7003,"BSTAR":-0.000693,"MEAN_MOTION_DOT":-2.4e-6,"MEAN_MOTION_DDOT":0},{"OBJECT_NAME":"ONEWEB-0150","OBJECT_ID":"2021-025F","EPOCH":"2022-08-18T22:31:20.485056","MEAN_MOTION":13.13468032,"ECCENTRICITY":0.0001707,"INCLINATION":87.9054,"RA_OF_ASC_NODE":237.9143,"ARG_OF_PERICENTER":87.9,"MEAN_ANOMALY":272.2325,"EPHEMERIS_TYPE":0,"CLASSIFICATION_TYPE":"U","NORAD_CAT_ID":48047,"ELEMENT_SET_NO":999,"REV_AT_EPOCH":6999,"BSTAR":0.00074075,"MEAN_MOTION_DOT":2.83e-6,"MEAN_MOTION_DDOT":0},{"OBJECT_NAME":"ONEWEB-0107","OBJECT_ID":"2021-025G","EPOCH":"2022-08-18T17:05:28.902048","MEAN_MOTION":13.13469359,"ECCENTRICITY":0.0001652,"INCLINATION":87.9042,"RA_OF_ASC_NODE":237.9751,"ARG_OF_PERICENTER":77.0937,"MEAN_ANOMALY":283.0377,"EPHEMERIS_TYPE":0,"CLASSIFICATION_TYPE":"U","NORAD_CAT_ID":48048,"ELEMENT_SET_NO":999,"REV_AT_EPOCH":6994,"BSTAR":0.0008501,"MEAN_MOTION_DOT":3.23e-6,"MEAN_MOTION_DDOT":0},{"OBJECT_NAME":"ONEWEB-0101","OBJECT_ID":"2021-025H","EPOCH":"2022-08-18T10:44:46.642848","MEAN_MOTION":13.13471573,"ECCENTRICITY":0.0001991,"INCLINATION":87.9037,"RA_OF_ASC_NODE":238.0471,"ARG_OF_PERICENTER":80.1639,"MEAN_ANOMALY":279.9715,"EPHEMERIS_TYPE":0,"CLASSIFICATION_TYPE":"U","NORAD_CAT_ID":48049,"ELEMENT_SET_NO":999,"REV_AT_EPOCH":6988,"BSTAR":-0.00035697,"MEAN_MOTION_DOT":-1.18e-6,"MEAN_MOTION_DDOT":0},{"OBJECT_NAME":"ONEWEB-0113","OBJECT_ID":"2021-025J","EPOCH":"2022-08-18T10:09:15.900480","MEAN_MOTION":13.13469034,"ECCENTRICITY":0.0002141,"INCLINATION":87.8992,"RA_OF_ASC_NODE":238.1154,"ARG_OF_PERICENTER":91.3827,"MEAN_ANOMALY":268.7548,"EPHEMERIS_TYPE":0,"CLASSIFICATION_TYPE":"U","NORAD_CAT_ID":48050,"ELEMENT_SET_NO":999,"REV_AT_EPOCH":6996,"BSTAR":-0.0004224,"MEAN_MOTION_DOT":-1.41e-6,"MEAN_MOTION_DDOT":0}]